ATLAS CENTAUR 2         
1 00694U 63047A   25321.69011016  .00006008  00000+0  72798-3 0  9995
2 00694  30.3522 101.3481 0549598 173.5573 187.2453 14.11538252115789
THOR AGENA D R/B        
1 00733U 64002A   25321.74218935  .00000357  00000+0  14472-3 0  9992
2 00733  99.1220 324.0086 0032213 223.2338 136.6316 14.33938859222257
SL-3 R/B                
1 00877U 64053B   25321.66047497  .00000757  00000+0  17198-3 0  9993
2 00877  65.0770 299.6448 0071564 328.8050  30.8811 14.61237342250427
SL-8 R/B                
1 02802U 67045B   25321.67042209  .00000512  00000+0  14938-3 0  9992
2 02802  74.0103 197.2725 0065329 232.1791 127.3443 14.45510118 72836
SL-8 R/B                
1 03230U 68040B   25321.80288566  .00004069  00000+0  30914-3 0  9990
2 03230  74.0302 182.1444 0023897  30.6148 329.6428 15.02302344 73201
OAO 2                   
1 03597U 68110A   25321.67509689  .00000448  00000+0  12607-3 0  9997
2 03597  34.9916 170.5860 0005364  11.3504 348.7307 14.47222211  2861
ISIS 1                  
1 03669U 69009A   25321.83549948  .00000259  00000+0  18700-3 0  9995
2 03669  88.4504 167.5197 1707223 315.0311  32.4200 11.30340899335894
SERT 2                  
1 04327U 70009A   25321.83652919  .00000033  00000+0  10153-3 0  9996
2 04327  99.2608 266.1313 0005688  89.3303 295.8123 13.58712950764702
SL-3 R/B                
1 05118U 71028B   25321.81346779  .00030769  00000+0  49130-3 0  9995
2 05118  81.2399 189.2741 0020735 332.1802  27.8335 15.52781167971263
ASTEX 1                 
1 05560U 71089A   25321.66500427  .00001083  00000+0  27598-3 0  9999
2 05560  92.7123 115.5092 0017850 101.5299 258.7913 14.50599326846066
SL-8 R/B                
1 05730U 71119B   25321.59710303  .00010164  00000+0  53715-3 0  9990
2 05730  73.8899  24.8180 0560820  14.1912 347.4278 14.35098152639396
OAO 3 (COPERNICUS)      
1 06153U 72065A   25321.77786147  .00000650  00000+0  13808-3 0  9998
2 06153  35.0048 214.8619 0007080 319.6710  77.3440 14.59876432829834
