CCSDS_OMM_VERS = 2.0
CREATION_DATE  = 
ORIGINATOR     = 

OBJECT_NAME    = ATLAS CENTAUR 2
OBJECT_ID      = 1963-047A
CENTER_NAME    = EARTH
REF_FRAME      = TEME
TIME_SYSTEM    = UTC
MEAN_ELEMENT_THEORY = SGP/SGP4

EPOCH          = 2025-11-17T16:33:45.517824
MEAN_MOTION    = 14.11538252
ECCENTRICITY   = .0549598
INCLINATION    = 30.3522
RA_OF_ASC_NODE = 101.3481
ARG_OF_PERICENTER = 173.5573
MEAN_ANOMALY   = 187.2453

EPHEMERIS_TYPE = 0
CLASSIFICATION_TYPE = U
NORAD_CAT_ID   = 694
ELEMENT_SET_NO = 999
REV_AT_EPOCH   = 11578
BSTAR          = .72798E-3
MEAN_MOTION_DOT = .6008E-4
MEAN_MOTION_DDOT = 0

CCSDS_OMM_VERS = 2.0
CREATION_DATE  = 
ORIGINATOR     = 

OBJECT_NAME    = THOR AGENA D R/B
OBJECT_ID      = 1964-002A
CENTER_NAME    = EARTH
REF_FRAME      = TEME
TIME_SYSTEM    = UTC
MEAN_ELEMENT_THEORY = SGP/SGP4

EPOCH          = 2025-11-17T17:48:45.159840
MEAN_MOTION    = 14.33938859
ECCENTRICITY   = .0032213
INCLINATION    = 99.1220
RA_OF_ASC_NODE = 324.0086
ARG_OF_PERICENTER = 223.2338
MEAN_ANOMALY   = 136.6316

EPHEMERIS_TYPE = 0
CLASSIFICATION_TYPE = U
NORAD_CAT_ID   = 733
ELEMENT_SET_NO = 999
REV_AT_EPOCH   = 22225
BSTAR          = .14472E-3
MEAN_MOTION_DOT = .357E-5
MEAN_MOTION_DDOT = 0

CCSDS_OMM_VERS = 2.0
CREATION_DATE  = 
ORIGINATOR     = 

OBJECT_NAME    = SL-3 R/B
OBJECT_ID      = 1964-053B
CENTER_NAME    = EARTH
REF_FRAME      = TEME
TIME_SYSTEM    = UTC
MEAN_ELEMENT_THEORY = SGP/SGP4

EPOCH          = 2025-11-17T15:51:05.037408
MEAN_MOTION    = 14.61237342
ECCENTRICITY   = .0071564
INCLINATION    = 65.0770
RA_OF_ASC_NODE = 299.6448
ARG_OF_PERICENTER = 328.8050
MEAN_ANOMALY   = 30.8811

EPHEMERIS_TYPE = 0
CLASSIFICATION_TYPE = U
NORAD_CAT_ID   = 877
ELEMENT_SET_NO = 999
REV_AT_EPOCH   = 25042
BSTAR          = .17198E-3
MEAN_MOTION_DOT = .757E-5
MEAN_MOTION_DDOT = 0

CCSDS_OMM_VERS = 2.0
CREATION_DATE  = 
ORIGINATOR     = 

OBJECT_NAME    = SL-8 R/B
OBJECT_ID      = 1967-045B
CENTER_NAME    = EARTH
REF_FRAME      = TEME
TIME_SYSTEM    = UTC
MEAN_ELEMENT_THEORY = SGP/SGP4

EPOCH          = 2025-11-17T16:05:24.468576
MEAN_MOTION    = 14.45510118
ECCENTRICITY   = .0065329
INCLINATION    = 74.0103
RA_OF_ASC_NODE = 197.2725
ARG_OF_PERICENTER = 232.1791
MEAN_ANOMALY   = 127.3443

EPHEMERIS_TYPE = 0
CLASSIFICATION_TYPE = U
NORAD_CAT_ID   = 2802
ELEMENT_SET_NO = 999
REV_AT_EPOCH   = 7283
BSTAR          = .14938E-3
MEAN_MOTION_DOT = .512E-5
MEAN_MOTION_DDOT = 0

CCSDS_OMM_VERS = 2.0
CREATION_DATE  = 
ORIGINATOR     = 

OBJECT_NAME    = SL-8 R/B
OBJECT_ID      = 1968-040B
CENTER_NAME    = EARTH
REF_FRAME      = TEME
TIME_SYSTEM    = UTC
MEAN_ELEMENT_THEORY = SGP/SGP4

EPOCH          = 2025-11-17T19:16:09.321024
MEAN_MOTION    = 15.02302344
ECCENTRICITY   = .0023897
INCLINATION    = 74.0302
RA_OF_ASC_NODE = 182.1444
ARG_OF_PERICENTER = 30.6148
MEAN_ANOMALY   = 329.6428

EPHEMERIS_TYPE = 0
CLASSIFICATION_TYPE = U
NORAD_CAT_ID   = 3230
ELEMENT_SET_NO = 999
REV_AT_EPOCH   = 7320
BSTAR          = .30914E-3
MEAN_MOTION_DOT = .4069E-4
MEAN_MOTION_DDOT = 0

CCSDS_OMM_VERS = 2.0
CREATION_DATE  = 
ORIGINATOR     = 

OBJECT_NAME    = OAO 2
OBJECT_ID      = 1968-110A
CENTER_NAME    = EARTH
REF_FRAME      = TEME
TIME_SYSTEM    = UTC
MEAN_ELEMENT_THEORY = SGP/SGP4

EPOCH          = 2025-11-17T16:12:08.371296
MEAN_MOTION    = 14.47222211
ECCENTRICITY   = .0005364
INCLINATION    = 34.9916
RA_OF_ASC_NODE = 170.5860
ARG_OF_PERICENTER = 11.3504
MEAN_ANOMALY   = 348.7307

EPHEMERIS_TYPE = 0
CLASSIFICATION_TYPE = U
NORAD_CAT_ID   = 3597
ELEMENT_SET_NO = 999
REV_AT_EPOCH   = 286
BSTAR          = .12607E-3
MEAN_MOTION_DOT = .448E-5
MEAN_MOTION_DDOT = 0

CCSDS_OMM_VERS = 2.0
CREATION_DATE  = 
ORIGINATOR     = 

OBJECT_NAME    = ISIS 1
OBJECT_ID      = 1969-009A
CENTER_NAME    = EARTH
REF_FRAME      = TEME
TIME_SYSTEM    = UTC
MEAN_ELEMENT_THEORY = SGP/SGP4

EPOCH          = 2025-11-17T20:03:07.155072
MEAN_MOTION    = 11.30340899
ECCENTRICITY   = .1707223
INCLINATION    = 88.4504
RA_OF_ASC_NODE = 167.5197
ARG_OF_PERICENTER = 315.0311
MEAN_ANOMALY   = 32.4200

EPHEMERIS_TYPE = 0
CLASSIFICATION_TYPE = U
NORAD_CAT_ID   = 3669
ELEMENT_SET_NO = 999
REV_AT_EPOCH   = 33589
BSTAR          = .187E-3
MEAN_MOTION_DOT = .259E-5
MEAN_MOTION_DDOT = 0

CCSDS_OMM_VERS = 2.0
CREATION_DATE  = 
ORIGINATOR     = 

OBJECT_NAME    = SERT 2
OBJECT_ID      = 1970-009A
CENTER_NAME    = EARTH
REF_FRAME      = TEME
TIME_SYSTEM    = UTC
MEAN_ELEMENT_THEORY = SGP/SGP4

EPOCH          = 2025-11-17T20:04:36.122016
MEAN_MOTION    = 13.58712950
ECCENTRICITY   = .0005688
INCLINATION    = 99.2608
RA_OF_ASC_NODE = 266.1313
ARG_OF_PERICENTER = 89.3303
MEAN_ANOMALY   = 295.8123

EPHEMERIS_TYPE = 0
CLASSIFICATION_TYPE = U
NORAD_CAT_ID   = 4327
ELEMENT_SET_NO = 999
REV_AT_EPOCH   = 76470
BSTAR          = .10153E-3
MEAN_MOTION_DOT = .33E-6
MEAN_MOTION_DDOT = 0

CCSDS_OMM_VERS = 2.0
CREATION_DATE  = 
ORIGINATOR     = 

OBJECT_NAME    = SL-3 R/B
OBJECT_ID      = 1971-028B
CENTER_NAME    = EARTH
REF_FRAME      = TEME
TIME_SYSTEM    = UTC
MEAN_ELEMENT_THEORY = SGP/SGP4

EPOCH          = 2025-11-17T19:31:23.617056
MEAN_MOTION    = 15.52781167
ECCENTRICITY   = .0020735
INCLINATION    = 81.2399
RA_OF_ASC_NODE = 189.2741
ARG_OF_PERICENTER = 332.1802
MEAN_ANOMALY   = 27.8335

EPHEMERIS_TYPE = 0
CLASSIFICATION_TYPE = U
NORAD_CAT_ID   = 5118
ELEMENT_SET_NO = 999
REV_AT_EPOCH   = 97126
BSTAR          = .4913E-3
MEAN_MOTION_DOT = .30769E-3
MEAN_MOTION_DDOT = 0

CCSDS_OMM_VERS = 2.0
CREATION_DATE  = 
ORIGINATOR     = 

OBJECT_NAME    = ASTEX 1
OBJECT_ID      = 1971-089A
CENTER_NAME    = EARTH
REF_FRAME      = TEME
TIME_SYSTEM    = UTC
MEAN_ELEMENT_THEORY = SGP/SGP4

EPOCH          = 2025-11-17T15:57:36.368928
MEAN_MOTION    = 14.50599326
ECCENTRICITY   = .001785
INCLINATION    = 92.7123
RA_OF_ASC_NODE = 115.5092
ARG_OF_PERICENTER = 101.5299
MEAN_ANOMALY   = 258.7913

EPHEMERIS_TYPE = 0
CLASSIFICATION_TYPE = U
NORAD_CAT_ID   = 5560
ELEMENT_SET_NO = 999
REV_AT_EPOCH   = 84606
BSTAR          = .27598E-3
MEAN_MOTION_DOT = .1083E-4
MEAN_MOTION_DDOT = 0

CCSDS_OMM_VERS = 2.0
CREATION_DATE  = 
ORIGINATOR     = 

OBJECT_NAME    = SL-8 R/B
OBJECT_ID      = 1971-119B
CENTER_NAME    = EARTH
REF_FRAME      = TEME
TIME_SYSTEM    = UTC
MEAN_ELEMENT_THEORY = SGP/SGP4

EPOCH          = 2025-11-17T14:19:49.702656
MEAN_MOTION    = 14.35098152
ECCENTRICITY   = .05608196
INCLINATION    = 73.8899
RA_OF_ASC_NODE = 24.8180
ARG_OF_PERICENTER = 14.1912
MEAN_ANOMALY   = 347.4278

EPHEMERIS_TYPE = 0
CLASSIFICATION_TYPE = U
NORAD_CAT_ID   = 5730
ELEMENT_SET_NO = 999
REV_AT_EPOCH   = 63939
BSTAR          = .53714895E-3
MEAN_MOTION_DOT = .10164E-3
MEAN_MOTION_DDOT = 0

CCSDS_OMM_VERS = 2.0
CREATION_DATE  = 
ORIGINATOR     = 

OBJECT_NAME    = OAO 3 (COPERNICUS)
OBJECT_ID      = 1972-065A
CENTER_NAME    = EARTH
REF_FRAME      = TEME
TIME_SYSTEM    = UTC
MEAN_ELEMENT_THEORY = SGP/SGP4

EPOCH          = 2025-11-17T18:40:07.231008
MEAN_MOTION    = 14.59876432
ECCENTRICITY   = .000708
INCLINATION    = 35.0048
RA_OF_ASC_NODE = 214.8619
ARG_OF_PERICENTER = 319.6710
MEAN_ANOMALY   = 77.3440

EPHEMERIS_TYPE = 0
CLASSIFICATION_TYPE = U
NORAD_CAT_ID   = 6153
ELEMENT_SET_NO = 999
REV_AT_EPOCH   = 82983
BSTAR          = .13808E-3
MEAN_MOTION_DOT = .65E-5
MEAN_MOTION_DDOT = 0

